QIANFAN-32              
1 61565U 24185P   25336.23737387  .00000228  00000+0  33556-3 0  9998
2 61565  88.9852  82.0457 0011251  95.6327 264.6108 13.50729631 66627
QIANFAN-33              
1 61566U 24185Q   25336.30021489  .00000512  00000+0  36065-3 0  9990
2 61566  88.9802  79.9698 0006841  16.4577 343.6820 13.96538995 67702
QIANFAN-34              
1 61567U 24185R   25336.23707726  .00000628  00000+0  40094-3 0  9993
2 61567  88.9780  79.5548 0005870  22.3816 337.7620 14.02291823 67886
QIANFAN-35              
1 61568U 24185S   25336.25624582  .00001213  00000+0  48404-3 0  9998
2 61568  88.9805  78.1082 0005176 336.8477  23.2484 14.27938011 68686
QIANFAN-36              
1 61569U 24185T   25336.26020963  .00000233  00000+0  31811-3 0  9998
2 61569  88.9786  82.1344 0007663  80.4172 279.7847 13.55582989 66507
GAOFEN-12 05            
1 61571U 24186A   25336.30724021  .00000713  00000+0  99402-4 0  9997
2 61571  97.9125 342.0842 0001338 124.1645 235.9694 14.80727137 60202
STARLINK-11356 [DTC]    
1 61574U 24187A   25335.53478299  .00002437  00000+0  24966-4 0  9996
2 61574  53.1597  60.1510 0001414  41.4879 318.6246 15.69714906 65369
STARLINK-11376 [DTC]    
1 61575U 24187B   25335.52987996  .00000085  00000+0  55587-5 0  9996
2 61575  53.1593  60.1174 0000827  77.9834 282.1276 15.69713500 65282
STARLINK-11372 [DTC]    
1 61576U 24187C   25335.52499173 -.00003763  00000+0 -26250-4 0  9994
2 61576  53.1605  60.0821 0001178  98.8723 261.2429 15.69682484 65334
STARLINK-11375 [DTC]    
1 61577U 24187D   25336.22043029  .00000042  00000+0  52035-5 0  9994
2 61577  53.1589  56.5985 0001081  78.5894 281.5246 15.69709551 65443
STARLINK-11285 [DTC]    
1 61578U 24187E   25336.21552587 -.00000287  00000+0  24849-5 0  9992
2 61578  53.1591  56.5659 0000773  80.0223 280.0882 15.69707906 65392
STARLINK-11275 [DTC]    
1 61579U 24187F   25336.21061952  .00000170  00000+0  62644-5 0  9999
2 61579  53.1595  56.5340 0001079  82.8266 277.2875 15.69710842 65394
STARLINK-11342 [DTC]    
1 61580U 24187G   25335.95103699 -.00000677  00000+0 -72981-6 0  9996
2 61580  53.1596  57.7554 0001231  86.1539 273.9620 15.69709632 65450
STARLINK-11374 [DTC]    
1 61581U 24187H   25335.94622874 -.00000164  00000+0  35000-5 0  9997
2 61581  53.1598  58.4569 0001020 121.2207 238.8912 15.69717131 65442
STARLINK-11373 [DTC]    
1 61582U 24187J   25336.25967189 -.00000883  00000+0 -24265-5 0  9994
2 61582  53.1611  56.8549 0001395  85.9823 274.1354 15.69716537 65446
STARLINK-11368 [DTC]    
1 61583U 24187K   25336.25476668 -.00001152  00000+0 -46506-5 0  9994
2 61583  53.1590  56.8219 0001101  91.5123 268.6021 15.69719566 65396
STARLINK-11370 [DTC]    
1 61584U 24187L   25335.48583193  .00000348  00000+0  77333-5 0  9997
2 61584  53.1594  60.5551 0001014  77.4308 282.6823 15.69709087 65329
STARLINK-11361 [DTC]    
1 61585U 24187M   25336.24495833  .00420866  00000+0  32698-2 0  9999
2 61585  53.1568  56.7555 0001017 132.7396 227.3708 15.69971770 65448
STARLINK-11360 [DTC]    
1 61586U 24187N   25335.53968682  .00000542  00000+0  93316-5 0  9990
2 61586  53.1592  60.1778 0000927 106.9474 253.1646 15.69711394 65386
STARLINK-32353          
1 61587U 24187P   25336.23366653  .00015180  00000+0  52344-3 0  9997
2 61587  53.1599 157.6319 0001201  78.3999 281.7137 15.30209663 64107
STARLINK-32325          
1 61588U 24187Q   25335.73014671  .00001863  00000+0  74973-4 0  9998
2 61588  53.1614 160.1885 0000767  67.7031 292.4051 15.30214080 64088
STARLINK-32416          
1 61589U 24187R   25336.20324240  .00001521  00000+0  47998-4 0  9996
2 61589  53.1616 143.2411 0001211  75.7028 284.4111 15.39622711 64360
STARLINK-32413          
1 61590U 24187S   25336.20423027  .00001108  00000+0  49528-4 0  9993
2 61590  53.1598 158.1570 0001105  84.2492 275.8635 15.30199502 64154
STARLINK-32409          
1 61591U 24187T   25335.73989489  .00000008  00000+0  10170-4 0  9999
2 61591  53.1594 145.3245 0000942  80.3881 279.7230 15.39616200 64292
STARLINK-32422          
1 61592U 24187U   25335.90214002 -.00000228  00000+0  42760-5 0  9997
2 61592  53.1604 144.2017 0000933  90.5170 269.5942 15.39615782 64329
STARLINK-32397          
1 61593U 24187V   25335.80020719  .00000789  00000+0  38767-4 0  9999
2 61593  53.1604 157.7750 0001152  81.8866 278.2266 15.30195347 64127
ONEWEB-0015             
1 61594U 24188A   25336.23491275  .00000515  00000+0  14167-2 0  9991
2 61594  87.8861  60.3210 0001689 123.9832 236.1457 13.11416431 58645
ONEWEB-0687             
1 61595U 24188B   25336.25235415  .00000123  00000+0  28452-3 0  9994
2 61595  87.9107  45.0597 0001225 114.2100 245.9160 13.17651756 59967
ONEWEB-0688             
1 61596U 24188C   25336.20510413  .00000139  00000+0  32457-3 0  9991
2 61596  87.9113  45.0699 0001909 143.3326 216.7936 13.17648826 59950
ONEWEB-0689             
1 61597U 24188D   25336.26880132 -.00000530  00000+0 -15305-2 0  9995
2 61597  87.8854  60.2498 0001332 101.2736 258.8542 13.11417406 58643
ONEWEB-0690             
1 61598U 24188E   25336.27898257 -.00000252  00000+0 -74681-3 0  9998
2 61598  87.8879  60.2585 0002405 101.8326 258.3072 13.11419546 58821
ONEWEB-0691             
1 61599U 24188F   25336.27388918 -.00000676  00000+0 -19426-2 0  9992
2 61599  87.8836  60.1643 0001680 118.4211 241.7086 13.11417301 58671
ONEWEB-0692             
1 61600U 24188G   25336.21794612  .00000364  00000+0  99208-3 0  9990
2 61600  87.8860  60.3177 0001633  70.6528 289.4776 13.11418236 58654
ONEWEB-0693             
1 61601U 24188H   25336.21692501  .00000019  00000+0  16684-4 0  9990
2 61601  87.9112  45.0867 0002563 107.4425 252.6987 13.17648150 59945
ONEWEB-0695             
1 61602U 24188J   25336.27049774 -.00000456  00000+0 -13211-2 0  9993
2 61602  87.8864  60.2964 0001241  87.4508 272.6762 13.11417697 58651
ONEWEB-0697             
1 61603U 24188K   25336.22642935  .00000571  00000+0  15749-2 0  9991
2 61603  87.8860  60.2951 0001732  76.0768 284.0552 13.11418894 58633
ONEWEB-0698             
1 61604U 24188L   25336.28067832 -.00000279  00000+0 -82405-3 0  9996
2 61604  87.8861  60.2994 0002470  81.0455 279.0952 13.11419115 58669
ONEWEB-0699             
1 61605U 24188M   25336.21316049  .00000088  00000+0  21539-3 0  9994
2 61605  87.8817  75.5260 0001684  80.1175 280.0143 13.10368748 57512
ONEWEB-0700             
1 61606U 24188N   25336.21481857 -.00000042  00000+0 -15749-3 0  9993
2 61606  87.8821  75.4103 0001105  82.0302 278.0951 13.10369278 57506
ONEWEB-0701             
1 61607U 24188P   25336.23141120 -.00000590  00000+0 -17270-2 0  9990
2 61607  87.8820  75.5243 0001693  74.2085 285.9229 13.10372264 57510
ONEWEB-0702             
1 61608U 24188Q   25336.25019029 -.00000074  00000+0 -24512-3 0  9990
2 61608  87.8821  60.1953 0001462  64.1067 296.0211 13.11419085 58678
ONEWEB-0704             
1 61609U 24188R   25336.21979781 -.00000322  00000+0 -96008-3 0  9992
2 61609  87.8824  75.4896 0001286  66.8286 293.2977 13.10370332 57490
ONEWEB-0705             
1 61610U 24188S   25336.22477353 -.00000499  00000+0 -14653-2 0  9993
2 61610  87.8813  75.5114 0000502 113.0091 247.1089 13.10372572 49663
ONEWEB-0706             
1 61611U 24188T   25336.20984526  .00000249  00000+0  67842-3 0  9997
2 61611  87.8805  75.5365 0001122  85.0344 275.0912 13.10369057 57580
ONEWEB-0707             
1 61612U 24188U   25336.21647572 -.00000116  00000+0 -36782-3 0  9990
2 61612  87.8823  75.5114 0001177  84.1450 275.9812 13.10366948 57529
ONEWEB-0708             
1 61613U 24188V   25336.23473324 -.00000618  00000+0 -18077-2 0  9998
2 61613  87.8810  75.5443 0001136 121.9455 238.1783 13.10374760 57508
TIANPING 3A-01          
1 61614U 24189A   25333.58852001 -.00002337  00000+0 -17894-3 0  9995
2 61614  97.5485 354.8451 0003785  63.9687 296.1927 15.00951480 60544
YAOGAN-43 03A           
1 61617U 24190A   25336.33098258  .00011665  00000+0  48538-3 0  9993
2 61617  34.9926 355.8968 0004862 330.7803  29.2639 15.22965432 61832
YAOGAN-43 03B           
1 61618U 24190B   25336.33160398  .00013204  00000+0  54902-3 0  9992
2 61618  34.9899 355.8156 0004837  67.4865 292.6361 15.22969969 61832
YAOGAN-43 03C           
1 61619U 24190C   25336.33606006  .00004321  00000+0  18021-3 0  9996
2 61619  34.9978 356.1147 0005878   1.1485 358.9242 15.23102118 61799
STARLINK-32302          
1 61621U 24191A   25336.09530172 -.00000852  00000+0 -21427-4 0  9995
2 61621  43.0036 345.4080 0002090 294.1828  65.8805 15.27577475 63363
STARLINK-32364          
1 61622U 24191B   25336.04017452  .00001700  00000+0  71228-4 0  9997
2 61622  43.0037 345.8517 0001158 262.5742  97.4978 15.27603750 62606
STARLINK-32331          
1 61623U 24191C   25336.11795158  .00000602  00000+0  31405-4 0  9995
2 61623  43.0015 349.0438 0001255 271.9424  88.1284 15.27578117 62571
STARLINK-32398          
1 61624U 24191D   25336.05176253 -.00000101  00000+0  58457-5 0  9990
2 61624  43.0030 345.9414 0000900 240.5799 119.4963 15.27577151 62604
STARLINK-32365          
1 61625U 24191E   25336.09787614  .00011622  00000+0  43105-3 0  9995
2 61625  43.0021 345.4255 0001221 266.3197  93.7515 15.27589464 62616
STARLINK-32333          
1 61626U 24191F   25336.06412977  .00000550  00000+0  29512-4 0  9995
2 61626  42.9983 349.4996 0000494 249.3584 110.7215 15.27577358 62560
STARLINK-32399          
1 61627U 24191G   25336.27315262  .00000164  00000+0  15490-4 0  9999
2 61627  43.0041 337.2324 0001128 241.3938 118.6801 15.27585261 62726
STARLINK-32421          
1 61628U 24191H   25336.05818950  .00000094  00000+0  12942-4 0  9999
2 61628  43.0009 345.9902 0000642 171.9333 188.1529 15.27579647 62603
STARLINK-32403          
1 61629U 24191J   25336.11329587  .00001575  00000+0  66739-4 0  9998
2 61629  43.0029 345.5436 0001279 259.3439 100.7268 15.27579573 62618
